{
  "type": "FeatureCollection",
  "features": [
    {
      "type": "Feature",
      "properties": {
        "norad_id": 33376,
        "name": "GALAXY 19 (G-19)",
        "group": "intelsat",
        "lat": 0.03198407843008424,
        "lon": 100.08778855108235,
        "alt_km": 35797.3805914564,
        "timestamp": "2025-12-12T07:43:20.171307+00:00",
        "meta_object_name": "GALAXY 19 (G-19)",
        "meta_object_id": "2008-045A",
        "meta_epoch": "2025-12-11T23:19:20.723232",
        "meta_mean_motion": 1.00269692,
        "meta_eccentricity": 0.00026538,
        "meta_inclination": 0.0174,
        "meta_ra_of_asc_node": 349.6569,
        "meta_arg_of_pericenter": 272.8388,
        "meta_mean_anomaly": 71.2668,
        "meta_ephemeris_type": 0,
        "meta_classification_type": "U",
        "meta_norad_cat_id": 33376,
        "meta_element_set_no": 999,
        "meta_rev_at_epoch": 6302,
        "meta_bstar": 0,
        "meta_mean_motion_dot": 0,
        "meta_mean_motion_ddot": 0,
        "tle_line1": "1 33376U 08045A   25345.97176763  .00000000  00000+0  00000+0 0  9992",
        "tle_line2": "2 33376   0.0174 349.6569 0002653 272.8388  71.2668  1.00269692 63028"
      },
      "geometry": {
        "type": "Point",
        "coordinates": [
          100.08778855108235,
          0.03198407843008424
        ]
      }
    },
    {
      "type": "Feature",
      "properties": {
        "norad_id": 35493,
        "name": "FM-5",
        "group": "intelsat",
        "lat": 0.008933264612148727,
        "lon": 110.94786354840129,
        "alt_km": 35784.630491137665,
        "timestamp": "2025-12-12T07:43:20.171318+00:00",
        "meta_object_name": "FM-5",
        "meta_object_id": "2009-034A",
        "meta_epoch": "2025-12-11T23:22:27.924384",
        "meta_mean_motion": 1.00271483,
        "meta_eccentricity": 6.711e-05,
        "meta_inclination": 0.0165,
        "meta_ra_of_asc_node": 292.0867,
        "meta_arg_of_pericenter": 235.2397,
        "meta_mean_anomaly": 178.0732,
        "meta_ephemeris_type": 0,
        "meta_classification_type": "U",
        "meta_norad_cat_id": 35493,
        "meta_element_set_no": 999,
        "meta_rev_at_epoch": 4476,
        "meta_bstar": 0,
        "meta_mean_motion_dot": -1.91e-06,
        "meta_mean_motion_ddot": 0,
        "tle_line1": "1 35493U 09034A   25345.97393431 -.00000191  00000+0  00000+0 0  9998",
        "tle_line2": "2 35493   0.0165 292.0867 0000671 235.2397 178.0732  1.00271483 44762"
      },
      "geometry": {
        "type": "Point",
        "coordinates": [
          110.94786354840129,
          0.008933264612148727
        ]
      }
    },
    {
      "type": "Feature",
      "properties": {
        "norad_id": 36097,
        "name": "INTELSAT 14 (IS-14)",
        "group": "intelsat",
        "lat": 0.0126074797045071,
        "lon": 152.0826412711513,
        "alt_km": 35790.185231466494,
        "timestamp": "2025-12-12T07:43:20.171330+00:00",
        "meta_object_name": "INTELSAT 14 (IS-14)",
        "meta_object_id": "2009-064A",
        "meta_epoch": "2025-12-11T11:35:03.635808",
        "meta_mean_motion": 1.00274485,
        "meta_eccentricity": 0.00026565,
        "meta_inclination": 0.0113,
        "meta_ra_of_asc_node": 22.6919,
        "meta_arg_of_pericenter": 244.5876,
        "meta_mean_anomaly": 301.9324,
        "meta_ephemeris_type": 0,
        "meta_classification_type": "U",
        "meta_norad_cat_id": 36097,
        "meta_element_set_no": 999,
        "meta_rev_at_epoch": 5872,
        "meta_bstar": 0,
        "meta_mean_motion_dot": -2.66e-06,
        "meta_mean_motion_ddot": 0,
        "tle_line1": "1 36097U 09064A   25345.48268097 -.00000266  00000+0  00000+0 0  9990",
        "tle_line2": "2 36097   0.0113  22.6919 0002656 244.5876 301.9324  1.00274485 58721"
      },
      "geometry": {
        "type": "Point",
        "coordinates": [
          152.0826412711513,
          0.0126074797045071
        ]
      }
    },
    {
      "type": "Feature",
      "properties": {
        "norad_id": 36106,
        "name": "INTELSAT 15 (IS-15)",
        "group": "intelsat",
        "lat": -0.014367872275382892,
        "lon": -77.7432593754515,
        "alt_km": 35776.28573242706,
        "timestamp": "2025-12-12T07:43:20.171342+00:00",
        "meta_object_name": "INTELSAT 15 (IS-15)",
        "meta_object_id": "2009-067A",
        "meta_epoch": "2025-12-11T22:28:38.543808",
        "meta_mean_motion": 1.00272381,
        "meta_eccentricity": 0.00023558,
        "meta_inclination": 0.0216,
        "meta_ra_of_asc_node": 292.0325,
        "meta_arg_of_pericenter": 335.9313,
        "meta_mean_anomaly": 235.2378,
        "meta_ephemeris_type": 0,
        "meta_classification_type": "U",
        "meta_norad_cat_id": 36106,
        "meta_element_set_no": 999,
        "meta_rev_at_epoch": 3935,
        "meta_bstar": 0,
        "meta_mean_motion_dot": -1.77e-06,
        "meta_mean_motion_ddot": 0,
        "tle_line1": "1 36106U 09067A   25345.93655722 -.00000177  00000+0  00000+0 0  9990",
        "tle_line2": "2 36106   0.0216 292.0325 0002355 335.9313 235.2378  1.00272381 39356"
      },
      "geometry": {
        "type": "Point",
        "coordinates": [
          -77.7432593754515,
          -0.014367872275382892
        ]
      }
    },
    {
      "type": "Feature",
      "properties": {
        "norad_id": 36131,
        "name": "DIRECTV 12",
        "group": "intelsat",
        "lat": -0.011380475673722464,
        "lon": 94.3857240432598,
        "alt_km": 35786.378295153445,
        "timestamp": "2025-12-12T07:43:20.171354+00:00",
        "meta_object_name": "DIRECTV 12",
        "meta_object_id": "2009-075A",
        "meta_epoch": "2025-12-11T23:17:43.378944",
        "meta_mean_motion": 1.00271584,
        "meta_eccentricity": 4.678e-05,
        "meta_inclination": 0.0479,
        "meta_ra_of_asc_node": 139.1887,
        "meta_arg_of_pericenter": 218.3,
        "meta_mean_anomaly": 330.148,
        "meta_ephemeris_type": 0,
        "meta_classification_type": "U",
        "meta_norad_cat_id": 36131,
        "meta_element_set_no": 999,
        "meta_rev_at_epoch": 4467,
        "meta_bstar": 0,
        "meta_mean_motion_dot": -9.5e-07,
        "meta_mean_motion_ddot": 0,
        "tle_line1": "1 36131U 09075A   25345.97064096 -.00000095  00000+0  00000+0 0  9998",
        "tle_line2": "2 36131   0.0479 139.1887 0000467 218.3000 330.1480  1.00271584 44672"
      },
      "geometry": {
        "type": "Point",
        "coordinates": [
          94.3857240432598,
          -0.011380475673722464
        ]
      }
    },
    {
      "type": "Feature",
      "properties": {
        "norad_id": 36397,
        "name": "INTELSAT 16 (IS-16)",
        "group": "intelsat",
        "lat": 0.013586818454143853,
        "lon": 120.8874356989248,
        "alt_km": 35792.966344446664,
        "timestamp": "2025-12-12T07:43:20.171365+00:00",
        "meta_object_name": "INTELSAT 16 (IS-16)",
        "meta_object_id": "2010-006A",
        "meta_epoch": "2025-12-11T23:25:20.148960",
        "meta_mean_motion": 1.00272283,
        "meta_eccentricity": 0.00021168,
        "meta_inclination": 0.0093,
        "meta_ra_of_asc_node": 327.4281,
        "meta_arg_of_pericenter": 294.8168,
        "meta_mean_anomaly": 93.8217,
        "meta_ephemeris_type": 0,
        "meta_classification_type": "U",
        "meta_norad_cat_id": 36397,
        "meta_element_set_no": 999,
        "meta_rev_at_epoch": 5777,
        "meta_bstar": 0,
        "meta_mean_motion_dot": -2.36e-06,
        "meta_mean_motion_ddot": 0,
        "tle_line1": "1 36397U 10006A   25345.97592765 -.00000236  00000+0  00000+0 0  9994",
        "tle_line2": "2 36397   0.0093 327.4281 0002116 294.8168  93.8217  1.00272283 57778"
      },
      "geometry": {
        "type": "Point",
        "coordinates": [
          120.8874356989248,
          0.013586818454143853
        ]
      }
    },
    {
      "type": "Feature",
      "properties": {
        "norad_id": 37185,
        "name": "XM-5",
        "group": "intelsat",
        "lat": 0.026088814512274152,
        "lon": 81.88317857512409,
        "alt_km": 35783.80468745715,
        "timestamp": "2025-12-12T07:43:20.171377+00:00",
        "meta_object_name": "XM-5",
        "meta_object_id": "2010-053A",
        "meta_epoch": "2025-12-11T23:14:06.224640",
        "meta_mean_motion": 1.00271577,
        "meta_eccentricity": 0.00016342,
        "meta_inclination": 0.0596,
        "meta_ra_of_asc_node": 272.32,
        "meta_arg_of_pericenter": 239.9053,
        "meta_mean_anomaly": 162.0245,
        "meta_ephemeris_type": 0,
        "meta_classification_type": "U",
        "meta_norad_cat_id": 37185,
        "meta_element_set_no": 999,
        "meta_rev_at_epoch": 5560,
        "meta_bstar": 0,
        "meta_mean_motion_dot": -1.4e-07,
        "meta_mean_motion_ddot": 0,
        "tle_line1": "1 37185U 10053A   25345.96812760 -.00000014  00000+0  00000+0 0  9995",
        "tle_line2": "2 37185   0.0596 272.3200 0001634 239.9053 162.0245  1.00271577 55603"
      },
      "geometry": {
        "type": "Point",
        "coordinates": [
          81.88317857512409,
          0.026088814512274152
        ]
      }
    }
  ]
}